[{"OBJECT_NAME":"STARLINK-30235","OBJECT_ID":"2023-096E","EPOCH":"2026-03-09T22:00:01.999584","MEAN_MOTION":15.1666611,"ECCENTRICITY":0.00012493,"INCLINATION":42.9991,"RA_OF_ASC_NODE":221.1883,"ARG_OF_PERICENTER":288.6797,"MEAN_ANOMALY":312.541,"EPHEMERIS_TYPE":0,"CLASSIFICATION_TYPE":"U","NORAD_CAT_ID":57294,"ELEMENT_SET_NO":999,"REV_AT_EPOCH":578,"BSTAR":0.0049850557,"MEAN_MOTION_DOT":0.00100537,"MEAN_MOTION_DDOT":0},{"OBJECT_NAME":"SITRO-AIS-65","OBJECT_ID":"2025-313U","EPOCH":"2026-03-09T22:33:12.029184","MEAN_MOTION":15.21573272,"ECCENTRICITY":0.0014457,"INCLINATION":97.4029,"RA_OF_ASC_NODE":145.2196,"ARG_OF_PERICENTER":357.2881,"MEAN_ANOMALY":2.8274,"EPHEMERIS_TYPE":0,"CLASSIFICATION_TYPE":"U","NORAD_CAT_ID":67266,"ELEMENT_SET_NO":999,"REV_AT_EPOCH":1085,"BSTAR":0.00052340138,"MEAN_MOTION_DOT":0.00011774,"MEAN_MOTION_DDOT":0}]
